{
  "type": "FeatureCollection",
  "features": [
    {
      "type": "Feature",
      "properties": {
        "norad_id": 29930,
        "name": "FENGYUN 1C DEB",
        "group": "fengyun-1c-debris",
        "lat": -13.459328041473237,
        "lon": -122.63376435316549,
        "alt_km": 749.4895873866635,
        "timestamp": "2025-12-18T19:29:52.816881+00:00",
        "meta_object_name": "FENGYUN 1C DEB",
        "meta_object_id": "1999-025JC",
        "meta_epoch": "2025-12-18T03:24:55.831968",
        "meta_mean_motion": 14.2082319,
        "meta_eccentricity": 0.01644393,
        "meta_inclination": 99.0442,
        "meta_ra_of_asc_node": 234.4958,
        "meta_arg_of_pericenter": 38.2031,
        "meta_mean_anomaly": 124.0666,
        "meta_ephemeris_type": 0,
        "meta_classification_type": "U",
        "meta_norad_cat_id": 29930,
        "meta_element_set_no": 999,
        "meta_rev_at_epoch": 97967,
        "meta_bstar": 0.00020181165,
        "meta_mean_motion_dot": 4.53e-06,
        "meta_mean_motion_ddot": 0,
        "tle_line1": "1 29930U 99025JC  25352.14231287  .00000453  00000+0  20181-3 0  9999",
        "tle_line2": "2 29930  99.0442 234.4958 0164439  38.2031 124.0666 14.20823190979675"
      },
      "geometry": {
        "type": "Point",
        "coordinates": [
          -122.63376435316549,
          -13.459328041473237
        ]
      }
    },
    {
      "type": "Feature",
      "properties": {
        "norad_id": 29931,
        "name": "FENGYUN 1C DEB",
        "group": "fengyun-1c-debris",
        "lat": -20.25622944058662,
        "lon": 31.266901822405693,
        "alt_km": 888.5053489768843,
        "timestamp": "2025-12-18T19:29:52.816891+00:00",
        "meta_object_name": "FENGYUN 1C DEB",
        "meta_object_id": "1999-025JD",
        "meta_epoch": "2025-12-18T02:47:34.829376",
        "meta_mean_motion": 14.03898521,
        "meta_eccentricity": 0.00324323,
        "meta_inclination": 98.8593,
        "meta_ra_of_asc_node": 27.2889,
        "meta_arg_of_pericenter": 79.211,
        "meta_mean_anomaly": 344.8832,
        "meta_ephemeris_type": 0,
        "meta_classification_type": "U",
        "meta_norad_cat_id": 29931,
        "meta_element_set_no": 999,
        "meta_rev_at_epoch": 96888,
        "meta_bstar": 0.00035739935,
        "meta_mean_motion_dot": 5.24e-06,
        "meta_mean_motion_ddot": 0,
        "tle_line1": "1 29931U 99025JD  25352.11637534  .00000524  00000+0  35740-3 0  9998",
        "tle_line2": "2 29931  98.8593  27.2889 0032432  79.2110 344.8832 14.03898521968880"
      },
      "geometry": {
        "type": "Point",
        "coordinates": [
          31.266901822405693,
          -20.25622944058662
        ]
      }
    },
    {
      "type": "Feature",
      "properties": {
        "norad_id": 29932,
        "name": "FENGYUN 1C DEB",
        "group": "fengyun-1c-debris",
        "lat": -7.1163264706048155,
        "lon": 4.405303826168467,
        "alt_km": 826.3196342341644,
        "timestamp": "2025-12-18T19:29:52.816900+00:00",
        "meta_object_name": "FENGYUN 1C DEB",
        "meta_object_id": "1999-025JE",
        "meta_epoch": "2025-12-17T23:19:52.217760",
        "meta_mean_motion": 14.16769064,
        "meta_eccentricity": 0.00384152,
        "meta_inclination": 98.6339,
        "meta_ra_of_asc_node": 2.503,
        "meta_arg_of_pericenter": 55.7357,
        "meta_mean_anomaly": 334.2162,
        "meta_ephemeris_type": 0,
        "meta_classification_type": "U",
        "meta_norad_cat_id": 29932,
        "meta_element_set_no": 999,
        "meta_rev_at_epoch": 97658,
        "meta_bstar": 0.00024904069,
        "meta_mean_motion_dot": 4.59e-06,
        "meta_mean_motion_ddot": 0,
        "tle_line1": "1 29932U 99025JE  25351.97213215  .00000459  00000+0  24904-3 0  9995",
        "tle_line2": "2 29932  98.6339   2.5030 0038415  55.7357 334.2162 14.16769064976588"
      },
      "geometry": {
        "type": "Point",
        "coordinates": [
          4.405303826168467,
          -7.1163264706048155
        ]
      }
    },
    {
      "type": "Feature",
      "properties": {
        "norad_id": 29933,
        "name": "FENGYUN 1C DEB",
        "group": "fengyun-1c-debris",
        "lat": 65.55967174526621,
        "lon": 76.59926117054692,
        "alt_km": 668.990848590297,
        "timestamp": "2025-12-18T19:29:52.816911+00:00",
        "meta_object_name": "FENGYUN 1C DEB",
        "meta_object_id": "1999-025JF",
        "meta_epoch": "2025-12-18T06:13:16.400640",
        "meta_mean_motion": 14.66065581,
        "meta_eccentricity": 0.0004952,
        "meta_inclination": 98.7492,
        "meta_ra_of_asc_node": 95.8178,
        "meta_arg_of_pericenter": 307.6992,
        "meta_mean_anomaly": 81.3887,
        "meta_ephemeris_type": 0,
        "meta_classification_type": "U",
        "meta_norad_cat_id": 29933,
        "meta_element_set_no": 999,
        "meta_rev_at_epoch": 98586,
        "meta_bstar": 0.0027485589,
        "meta_mean_motion_dot": 0.00015062,
        "meta_mean_motion_ddot": 0,
        "tle_line1": "1 29933U 99025JF  25352.25921760  .00015062  00000+0  27486-2 0  9992",
        "tle_line2": "2 29933  98.7492  95.8178 0004952 307.6992  81.3887 14.66065581985864"
      },
      "geometry": {
        "type": "Point",
        "coordinates": [
          76.59926117054692,
          65.55967174526621
        ]
      }
    },
    {
      "type": "Feature",
      "properties": {
        "norad_id": 29934,
        "name": "FENGYUN 1C DEB",
        "group": "fengyun-1c-debris",
        "lat": -48.45589587986578,
        "lon": 50.35622655652175,
        "alt_km": 671.3353990134865,
        "timestamp": "2025-12-18T19:29:52.816921+00:00",
        "meta_object_name": "FENGYUN 1C DEB",
        "meta_object_id": "1999-025JG",
        "meta_epoch": "2025-12-18T01:40:41.038752",
        "meta_mean_motion": 14.63836419,
        "meta_eccentricity": 0.01008404,
        "meta_inclination": 98.904,
        "meta_ra_of_asc_node": 39.3638,
        "meta_arg_of_pericenter": 235.774,
        "meta_mean_anomaly": 123.3874,
        "meta_ephemeris_type": 0,
        "meta_classification_type": "U",
        "meta_norad_cat_id": 29934,
        "meta_element_set_no": 999,
        "meta_rev_at_epoch": 99850,
        "meta_bstar": 0.0006836362,
        "meta_mean_motion_dot": 3.783e-05,
        "meta_mean_motion_ddot": 0,
        "tle_line1": "1 29934U 99025JG  25352.06991943  .00003783  00000+0  68364-3 0  9990",
        "tle_line2": "2 29934  98.9040  39.3638 0100840 235.7740 123.3874 14.63836419998506"
      },
      "geometry": {
        "type": "Point",
        "coordinates": [
          50.35622655652175,
          -48.45589587986578
        ]
      }
    },
    {
      "type": "Feature",
      "properties": {
        "norad_id": 29935,
        "name": "FENGYUN 1C DEB",
        "group": "fengyun-1c-debris",
        "lat": 68.91605447979516,
        "lon": 31.983272982021838,
        "alt_km": 904.0168675735958,
        "timestamp": "2025-12-18T19:29:52.816931+00:00",
        "meta_object_name": "FENGYUN 1C DEB",
        "meta_object_id": "1999-025JH",
        "meta_epoch": "2025-12-18T02:28:52.998816",
        "meta_mean_motion": 14.14241196,
        "meta_eccentricity": 0.01504334,
        "meta_inclination": 98.461,
        "meta_ra_of_asc_node": 54.0219,
        "meta_arg_of_pericenter": 200.6617,
        "meta_mean_anomaly": 223.5591,
        "meta_ephemeris_type": 0,
        "meta_classification_type": "U",
        "meta_norad_cat_id": 29935,
        "meta_element_set_no": 999,
        "meta_rev_at_epoch": 97618,
        "meta_bstar": 0.00010098978,
        "meta_mean_motion_dot": 1.74e-06,
        "meta_mean_motion_ddot": 0,
        "tle_line1": "1 29935U 99025JH  25352.10339119  .00000174  00000+0  10099-3 0  9990",
        "tle_line2": "2 29935  98.4610  54.0219 0150433 200.6617 223.5591 14.14241196976188"
      },
      "geometry": {
        "type": "Point",
        "coordinates": [
          31.983272982021838,
          68.91605447979516
        ]
      }
    },
    {
      "type": "Feature",
      "properties": {
        "norad_id": 29936,
        "name": "FENGYUN 1C DEB",
        "group": "fengyun-1c-debris",
        "lat": -31.957000222338888,
        "lon": -79.24008356531961,
        "alt_km": 720.0039757389623,
        "timestamp": "2025-12-18T19:29:52.816941+00:00",
        "meta_object_name": "FENGYUN 1C DEB",
        "meta_object_id": "1999-025JJ",
        "meta_epoch": "2025-12-18T06:48:20.911968",
        "meta_mean_motion": 14.35319053,
        "meta_eccentricity": 0.01142788,
        "meta_inclination": 98.6565,
        "meta_ra_of_asc_node": 105.6828,
        "meta_arg_of_pericenter": 170.6393,
        "meta_mean_anomaly": 189.6959,
        "meta_ephemeris_type": 0,
        "meta_classification_type": "U",
        "meta_norad_cat_id": 29936,
        "meta_element_set_no": 999,
        "meta_rev_at_epoch": 99010,
        "meta_bstar": 0.0001600913,
        "meta_mean_motion_dot": 4.47e-06,
        "meta_mean_motion_ddot": 0,
        "tle_line1": "1 29936U 99025JJ  25352.28357537  .00000447  00000+0  16009-3 0  9994",
        "tle_line2": "2 29936  98.6565 105.6828 0114278 170.6393 189.6959 14.35319053990102"
      },
      "geometry": {
        "type": "Point",
        "coordinates": [
          -79.24008356531961,
          -31.957000222338888
        ]
      }
    }
  ]
}